{"type": "FeatureCollection", "features": [ {"type": "Feature", "properties": {"norad_id": 37340, "name": "COSMOS 2251 DEB", "group": "cosmos-2251-debris", "lat": 24.81275593122396, "lon": 79.89536778911287, "alt_km": 779.0049219805078, "timestamp": "2025-12-17T23:38:07.251184+00:00", "meta": {"OBJECT_NAME": "COSMOS 2251 DEB", "OBJECT_ID": "1993-036BLG", "EPOCH": "2025-12-17T01:11:59.297568", "MEAN_MOTION": 14.36928464, "ECCENTRICITY": 0.00179655, "INCLINATION": 74.0254, "RA_OF_ASC_NODE": 269.2249, "ARG_OF_PERICENTER": 3.2012, "MEAN_ANOMALY": 356.9253, "EPHEMERIS_TYPE": 0, "CLASSIFICATION_TYPE": "U", "NORAD_CAT_ID": 37340, "ELEMENT_SET_NO": 999, "REV_AT_EPOCH": 84129, "BSTAR": 0.00016814151, "MEAN_MOTION_DOT": 4.72e-06, "MEAN_MOTION_DDOT": 0}, "tle": {"line1": "1 37340U 93036BLG 25351.04999187  .00000472  00000+0  16814-3 0  9996", "line2": "2 37340  74.0254 269.2249 0017965   3.2012 356.9253 14.36928464841295"}}, "geometry": {"type": "Point", "coordinates": [79.89536778911287, 24.81275593122396]}}, {"type": "Feature", "properties": {"norad_id": 37483, "name": "COSMOS 2251 DEB", "group": "cosmos-2251-debris", "lat": 31.12743467569394, "lon": 143.54604484779946, "alt_km": 705.0046769907585, "timestamp": "2025-12-17T23:38:07.251194+00:00", "meta": {"OBJECT_NAME": "COSMOS 2251 DEB", "OBJECT_ID": "1993-036BLL", "EPOCH": "2025-12-17T01:51:56.048256", "MEAN_MOTION": 14.43563057, "ECCENTRICITY": 0.00933386, "INCLINATION": 73.9734, "RA_OF_ASC_NODE": 135.2418, "ARG_OF_PERICENTER": 340.7121, "MEAN_ANOMALY": 19.051, "EPHEMERIS_TYPE": 0, "CLASSIFICATION_TYPE": "U", "NORAD_CAT_ID": 37483, "ELEMENT_SET_NO": 999, "REV_AT_EPOCH": 65342, "BSTAR": 0.00018193502, "MEAN_MOTION_DOT": 6.2e-06, "MEAN_MOTION_DDOT": 0}, "tle": {"line1": "1 37483U 93036BLL 25351.07773204  .00000620  00000+0  18194-3 0  9995", "line2": "2 37483  73.9734 135.2418 0093338 340.7121  19.0510 14.43563057653422"}}, "geometry": {"type": "Point", "coordinates": [143.54604484779946, 31.12743467569394]}}, {"type": "Feature", "properties": {"norad_id": 37484, "name": "COSMOS 2251 DEB", "group": "cosmos-2251-debris", "lat": -62.58038477427385, "lon": 52.61861579175924, "alt_km": 732.034110169936, "timestamp": "2025-12-17T23:38:07.251205+00:00", "meta": {"OBJECT_NAME": "COSMOS 2251 DEB", "OBJECT_ID": "1993-036BLM", "EPOCH": "2025-12-15T22:30:27.179712", "MEAN_MOTION": 14.41798427, "ECCENTRICITY": 0.00396359, "INCLINATION": 73.8232, "RA_OF_ASC_NODE": 202.4364, "ARG_OF_PERICENTER": 236.871, "MEAN_ANOMALY": 189.8739, "EPHEMERIS_TYPE": 0, "CLASSIFICATION_TYPE": "U", "NORAD_CAT_ID": 37484, "ELEMENT_SET_NO": 999, "REV_AT_EPOCH": 65425, "BSTAR": 0.00048864648, "MEAN_MOTION_DOT": 1.583e-05, "MEAN_MOTION_DDOT": 0}, "tle": {"line1": "1 37484U 93036BLM 25349.93781458  .00001583  00000+0  48865-3 0  9995", "line2": "2 37484  73.8232 202.4364 0039635 236.8710 189.8739 14.41798427654251"}}, "geometry": {"type": "Point", "coordinates": [52.61861579175924, -62.58038477427385]}}, {"type": "Feature", "properties": {"norad_id": 37486, "name": "COSMOS 2251 DEB", "group": "cosmos-2251-debris", "lat": -29.013609573853696, "lon": 95.77074501465401, "alt_km": 687.2662026791977, "timestamp": "2025-12-17T23:38:07.251215+00:00", "meta": {"OBJECT_NAME": "COSMOS 2251 DEB", "OBJECT_ID": "1993-036BLP", "EPOCH": "2025-12-17T02:32:52.709568", "MEAN_MOTION": 14.133616, "ECCENTRICITY": 0.02300438, "INCLINATION": 73.6918, "RA_OF_ASC_NODE": 106.7033, "ARG_OF_PERICENTER": 334.068, "MEAN_ANOMALY": 206.8915, "EPHEMERIS_TYPE": 0, "CLASSIFICATION_TYPE": "U", "NORAD_CAT_ID": 37486, "ELEMENT_SET_NO": 999, "REV_AT_EPOCH": 63431, "BSTAR": 0.0015394853, "MEAN_MOTION_DOT": 3.693e-05, "MEAN_MOTION_DDOT": 0}, "tle": {"line1": "1 37486U 93036BLP 25351.10616562  .00003693  00000+0  15395-2 0  9997", "line2": "2 37486  73.6918 106.7033 0230043 334.0680 206.8915 14.13361600634313"}}, "geometry": {"type": "Point", "coordinates": [95.77074501465401, -29.013609573853696]}}, {"type": "Feature", "properties": {"norad_id": 37487, "name": "COSMOS 2251 DEB", "group": "cosmos-2251-debris", "lat": -72.13907337781173, "lon": 65.31720356769713, "alt_km": 639.8471892980306, "timestamp": "2025-12-17T23:38:07.251225+00:00", "meta": {"OBJECT_NAME": "COSMOS 2251 DEB", "OBJECT_ID": "1993-036BLQ", "EPOCH": "2025-12-12T06:17:24.389376", "MEAN_MOTION": 14.80982589, "ECCENTRICITY": 0.00255931, "INCLINATION": 73.9026, "RA_OF_ASC_NODE": 193.0379, "ARG_OF_PERICENTER": 31.2136, "MEAN_ANOMALY": 329.0553, "EPHEMERIS_TYPE": 0, "CLASSIFICATION_TYPE": "U", "NORAD_CAT_ID": 37487, "ELEMENT_SET_NO": 999, "REV_AT_EPOCH": 81238, "BSTAR": 0.0042593386, "MEAN_MOTION_DOT": 0.00033302, "MEAN_MOTION_DDOT": 0}, "tle": {"line1": "1 37487U 93036BLQ 25346.26208784  .00033302  00000+0  42593-2 0  9992", "line2": "2 37487  73.9026 193.0379 0025593  31.2136 329.0553 14.80982589812383"}}, "geometry": {"type": "Point", "coordinates": [65.31720356769713, -72.13907337781173]}}, {"type": "Feature", "properties": {"norad_id": 37491, "name": "COSMOS 2251 DEB", "group": "cosmos-2251-debris", "lat": -1.2761216959660684, "lon": 85.66640721165601, "alt_km": 920.7754770804931, "timestamp": "2025-12-17T23:38:07.251236+00:00", "meta": {"OBJECT_NAME": "COSMOS 2251 DEB", "OBJECT_ID": "1993-036BLU", "EPOCH": "2025-12-17T10:30:09.799488", "MEAN_MOTION": 13.75304386, "ECCENTRICITY": 0.03169466, "INCLINATION": 73.9062, "RA_OF_ASC_NODE": 266.2149, "ARG_OF_PERICENTER": 258.4493, "MEAN_ANOMALY": 98.089, "EPHEMERIS_TYPE": 0, "CLASSIFICATION_TYPE": "U", "NORAD_CAT_ID": 37491, "ELEMENT_SET_NO": 999, "REV_AT_EPOCH": 55811, "BSTAR": 0.00073849691, "MEAN_MOTION_DOT": 9.96e-06, "MEAN_MOTION_DDOT": 0}, "tle": {"line1": "1 37491U 93036BLU 25351.43761342  .00000996  00000+0  73850-3 0  9990", "line2": "2 37491  73.9062 266.2149 0316946 258.4493  98.0890 13.75304386558111"}}, "geometry": {"type": "Point", "coordinates": [85.66640721165601, -1.2761216959660684]}}, {"type": "Feature", "properties": {"norad_id": 37498, "name": "COSMOS 2251 DEB", "group": "cosmos-2251-debris", "lat": -63.546141608604316, "lon": 138.83562505274259, "alt_km": 711.8435858176599, "timestamp": "2025-12-17T23:38:07.251246+00:00", "meta": {"OBJECT_NAME": "COSMOS 2251 DEB", "OBJECT_ID": "1993-036BMB", "EPOCH": "2025-12-17T05:47:45.633696", "MEAN_MOTION": 14.54797017, "ECCENTRICITY": 0.00121664, "INCLINATION": 74.0349, "RA_OF_ASC_NODE": 175.365, "ARG_OF_PERICENTER": 238.527, "MEAN_ANOMALY": 121.4705, "EPHEMERIS_TYPE": 0, "CLASSIFICATION_TYPE": "U", "NORAD_CAT_ID": 37498, "ELEMENT_SET_NO": 999, "REV_AT_EPOCH": 65420, "BSTAR": 0.00049858952, "MEAN_MOTION_DOT": 2.112e-05, "MEAN_MOTION_DDOT": 0}, "tle": {"line1": "1 37498U 93036BMB 25351.24150039  .00002112  00000+0  49859-3 0  9995", "line2": "2 37498  74.0349 175.3650 0012166 238.5270 121.4705 14.54797017654202"}}, "geometry": {"type": "Point", "coordinates": [138.83562505274259, -63.546141608604316]}}, {"type": "Feature", "properties": {"norad_id": 37499, "name": "COSMOS 2251 DEB", "group": "cosmos-2251-debris", "lat": 57.7301509156666, "lon": 105.63440852100604, "alt_km": 771.6990414830216, "timestamp": "2025-12-17T23:38:07.251256+00:00", "meta": {"OBJECT_NAME": "COSMOS 2251 DEB", "OBJECT_ID": "1993-036BMC", "EPOCH": "2025-12-16T15:17:00.283776", "MEAN_MOTION": 14.34346206, "ECCENTRICITY": 0.00270928, "INCLINATION": 74.0379, "RA_OF_ASC_NODE": 315.0551, "ARG_OF_PERICENTER": 29.8963, "MEAN_ANOMALY": 330.3729, "EPHEMERIS_TYPE": 0, "CLASSIFICATION_TYPE": "U", "NORAD_CAT_ID": 37499, "ELEMENT_SET_NO": 999, "REV_AT_EPOCH": 85205, "BSTAR": 0.0001595239, "MEAN_MOTION_DOT": 4.24e-06, "MEAN_MOTION_DDOT": 0}, "tle": {"line1": "1 37499U 93036BMC 25350.63680884  .00000424  00000+0  15952-3 0  9995", "line2": "2 37499  74.0379 315.0551 0027092  29.8963 330.3729 14.34346206852051"}}, "geometry": {"type": "Point", "coordinates": [105.63440852100604, 57.7301509156666]}}, {"type": "Feature", "properties": {"norad_id": 37528, "name": "COSMOS 2251 DEB", "group": "cosmos-2251-debris", "lat": -37.167119869269754, "lon": -55.18667356718965, "alt_km": 718.531537109985, "timestamp": "2025-12-17T23:38:07.251266+00:00", "meta": {"OBJECT_NAME": "COSMOS 2251 DEB", "OBJECT_ID": "1993-036BNH", "EPOCH": "2025-12-17T01:06:35.387424", "MEAN_MOTION": 14.50536544, "ECCENTRICITY": 0.00211941, "INCLINATION": 74.037, "RA_OF_ASC_NODE": 114.0433, "ARG_OF_PERICENTER": 261.8302, "MEAN_ANOMALY": 98.0455, "EPHEMERIS_TYPE": 0, "CLASSIFICATION_TYPE": "U", "NORAD_CAT_ID": 37528, "ELEMENT_SET_NO": 999, "REV_AT_EPOCH": 85993, "BSTAR": 0.00037344013, "MEAN_MOTION_DOT": 1.439e-05, "MEAN_MOTION_DDOT": 0}, "tle": {"line1": "1 37528U 93036BNH 25351.04624291  .00001439  00000+0  37344-3 0  9990", "line2": "2 37528  74.0370 114.0433 0021194 261.8302  98.0455 14.50536544859935"}}, "geometry": {"type": "Point", "coordinates": [-55.18667356718965, -37.167119869269754]}}, {"type": "Feature", "properties": {"norad_id": 37530, "name": "COSMOS 2251 DEB", "group": "cosmos-2251-debris", "lat": -5.5697213105760355, "lon": 145.6368136903794, "alt_km": 797.5878910893844, "timestamp": "2025-12-17T23:38:07.251276+00:00", "meta": {"OBJECT_NAME": "COSMOS 2251 DEB", "OBJECT_ID": "1993-036BNK", "EPOCH": "2025-12-16T15:31:15.279168", "MEAN_MOTION": 14.34508686, "ECCENTRICITY": 0.00259991, "INCLINATION": 74.0359, "RA_OF_ASC_NODE": 326.4868, "ARG_OF_PERICENTER": 27.4409, "MEAN_ANOMALY": 90.6459, "EPHEMERIS_TYPE": 0, "CLASSIFICATION_TYPE": "U", "NORAD_CAT_ID": 37530, "ELEMENT_SET_NO": 999, "REV_AT_EPOCH": 85288, "BSTAR": 0.00021920121, "MEAN_MOTION_DOT": 5.94e-06, "MEAN_MOTION_DDOT": 0}, "tle": {"line1": "1 37530U 93036BNK 25350.64670462  .00000594  00000+0  21920-3 0  9993", "line2": "2 37530  74.0359 326.4868 0025999  27.4409  90.6459 14.34508686852884"}}, "geometry": {"type": "Point", "coordinates": [145.6368136903794, -5.5697213105760355]}}]}